[{"OBJECT_NAME":"STARLINK-31784","OBJECT_ID":"2024-080T","EPOCH":"2026-03-09T23:33:08.214912","MEAN_MOTION":15.27572343,"ECCENTRICITY":0.00013919,"INCLINATION":43.0057,"RA_OF_ASC_NODE":40.0291,"ARG_OF_PERICENTER":262.4539,"MEAN_ANOMALY":97.6155,"EPHEMERIS_TYPE":0,"CLASSIFICATION_TYPE":"U","NORAD_CAT_ID":59618,"ELEMENT_SET_NO":999,"REV_AT_EPOCH":10453,"BSTAR":6.9501051e-5,"MEAN_MOTION_DOT":1.65e-5,"MEAN_MOTION_DDOT":0},{"OBJECT_NAME":"COSMOS 546","OBJECT_ID":"1973-005A","EPOCH":"2026-03-09T21:40:39.247392","MEAN_MOTION":15.29707303,"ECCENTRICITY":0.00147738,"INCLINATION":50.6327,"RA_OF_ASC_NODE":289.914,"ARG_OF_PERICENTER":261.1516,"MEAN_ANOMALY":98.7778,"EPHEMERIS_TYPE":0,"CLASSIFICATION_TYPE":"U","NORAD_CAT_ID":6350,"ELEMENT_SET_NO":999,"REV_AT_EPOCH":92802,"BSTAR":9.142057e-5,"MEAN_MOTION_DOT":2.316e-5,"MEAN_MOTION_DDOT":0}]
